OBJECT_NAME,OBJECT_ID,EPOCH,MEAN_MOTION,ECCENTRICITY,INCLINATION,RA_OF_ASC_NODE,ARG_OF_PERICENTER,MEAN_ANOMALY,EPHEMERIS_TYPE,CLASSIFICATION_TYPE,NORAD_CAT_ID,ELEMENT_SET_NO,REV_AT_EPOCH,BSTAR,MEAN_MOTION_DOT,MEAN_MOTION_DDOT
ALOS-2,2014-029A,2026-07-07T13:32:35.081088,14.79472595,.00016004,97.9222,285.4371,91.7523,268.3872,0,U,39766,999,65459,.24132264E-3,.1751E-4,0
KAZEOSAT 2,2014-033A,2026-07-07T13:44:41.502912,14.85494590,.0007066,97.5399,27.1062,249.6532,110.3925,0,U,40010,999,65198,.83803393E-4,.673E-5,0
HODOYOSHI-4,2014-033B,2026-07-07T14:37:18.537312,14.88180669,.00221201,97.5462,12.4467,235.9883,123.9234,0,U,40011,999,65184,.21112052E-3,.1902E-4,0
DEIMOS-2,2014-033D,2026-07-07T13:08:00.958848,14.93788789,.00011351,97.5803,62.3181,83.5942,276.5408,0,U,40013,999,64076,.1862079E-3,.192E-4,0
HODOYOSHI-3,2014-033F,2026-07-07T09:27:11.392704,14.85427120,.00313687,97.6437,350.6235,288.8819,70.8997,0,U,40015,999,65062,.94917014E-4,.772E-5,0
SPOT 7,2014-034A,2026-07-07T14:11:18.600864,14.60977611,.00015103,98.0613,250.5568,96.8965,263.2407,0,U,40053,999,64011,.10665376E-3,.477E-5,0
SKYSAT-B,2014-037D,2026-07-07T08:45:51.316128,14.88079196,.00049216,98.3848,148.4820,199.0980,161.0051,0,U,40072,999,64896,.12886105E-3,.1123E-4,0
WORLDVIEW-3 (WV-3),2014-048A,2026-07-07T12:23:02.765472,14.85056010,.00006899,97.8559,263.0678,167.0135,193.1098,0,U,40115,999,64492,.89606523E-4,.712E-5,0
GAOFEN-2,2014-049A,2026-07-07T13:57:33.754752,14.80921582,.00076723,98.0094,252.7690,156.8901,203.2657,0,U,40118,999,64225,.38273343E-4,.243E-5,0
YAOGAN-21,2014-053A,2026-07-07T14:44:46.307040,15.26693508,.00087096,97.1462,227.9756,33.4738,326.7051,0,U,40143,999,65807,.28736116E-3,.7484E-4,0
YAOGAN-22,2014-063A,2026-07-06T23:00:54.173376,13.15531480,.00067439,100.7751,339.5625,142.3559,217.8025,0,U,40275,999,56241,.25508557E-4,-.37E-6,0
ASNARO,2014-070A,2026-07-07T15:19:28.718112,15.19757920,.00067924,97.3439,264.2029,108.0668,252.1308,0,U,40298,999,64711,.3624484E-3,.7692E-4,0
YAOGAN-24,2014-072A,2026-07-07T14:54:00.329760,14.76114540,.00139555,98.1519,326.1326,194.1523,165.9297,0,U,40310,999,62673,.1835811E-3,.1216E-4,0
CBERS 4,2014-079A,2026-07-07T14:22:54.819840,14.35515833,.00011273,98.3516,244.7899,49.1568,310.9716,0,U,40336,999,60688,.12000613E-3,.303E-5,0
YAOGAN-26,2014-088A,2026-07-07T15:04:44.313888,15.48216323,.00031397,97.0646,188.3690,16.5759,343.5594,0,U,40362,999,64086,.27681847E-3,.14497E-3,0
SMAP,2015-003A,2026-07-07T14:13:27.162336,14.63384765,.00015396,98.1279,195.3983,97.0586,263.0791,0,U,40376,999,61060,.77938481E-4,.356E-5,0
KOMPSAT-3A,2015-014A,2026-07-07T13:59:59.957376,15.55091973,.00569084,97.6894,181.4518,102.3966,258.3664,0,U,40536,999,62498,.3027107E-3,.21803E-3,0
SENTINEL-2A,2015-028A,2026-07-07T13:32:38.376384,14.30821730,.00012403,98.5673,263.1268,95.2843,264.8482,0,U,40697,999,57664,.81634177E-4,.17E-5,0
GAOFEN-8,2015-030A,2026-07-07T14:25:59.351232,15.46744720,.00098543,97.6905,23.2069,119.3000,240.9235,0,U,40701,999,61460,.41404133E-3,.20686E-3,0
CARBONITE 1 (CBNT-1),2015-032D,2026-07-07T14:50:06.782784,14.83652662,.00132731,97.6523,5.8305,223.6233,136.3933,0,U,40718,999,59237,.14115083E-3,.1116E-4,0
YAOGAN-27,2015-040A,2026-07-07T15:07:29.164224,13.16071633,.00083051,100.1167,174.1263,161.9289,198.2121,0,U,40878,999,52035,.83522882E-3,.275E-5,0
GAOFEN-9 01,2015-047A,2026-07-07T15:25:56.374176,14.82924967,.00288119,97.6266,223.4076,74.1022,286.3365,0,U,40894,999,58322,.1086227E-3,.836E-5,0
YAOGAN-28,2015-064A,2026-07-07T15:06:55.519200,15.27693664,.00119673,97.3097,326.4812,116.4103,243.8367,0,U,41026,999,59380,.18537427E-3,.4953E-4,0
YAOGAN-29,2015-069A,2026-07-07T14:53:33.603648,14.83101476,.00013484,98.0020,217.2846,20.5675,339.5592,0,U,41038,999,57365,.17861026E-4,.91E-6,0
KENT RIDGE 1,2015-077B,2026-07-07T03:15:36.846432,15.23253362,.00081865,14.9789,117.6108,161.4249,198.6373,0,U,41167,999,58414,.10615178E-3,.3355E-4,0
GAOFEN-4,2015-083A,2026-07-07T14:53:46.631040,1.00271413,.00042526,0.4069,83.8503,117.1090,53.7807,0,U,41194,999,3873,0,-.32E-5,0
JASON-3,2016-002A,2026-07-07T14:02:49.073280,12.87628189,.00082508,66.0419,82.9519,271.4739,88.5335,0,U,41240,999,48987,.12772521E-4,-.59E-6,0
SENTINEL-3A,2016-011A,2026-07-07T13:18:05.676768,14.26738331,.00014102,98.6240,255.6445,92.5880,267.5462,0,U,41335,999,54096,.48232933E-4,.73E-6,0
ZIYUAN 3-02 (ZY 3-02),2016-033A,2026-07-07T15:30:13.325184,15.21384656,.00133064,97.3826,264.0269,211.9293,148.1137,0,U,41556,999,56109,.1542171E-3,.3396E-4,0
CARTOSAT-2C,2016-040A,2026-07-07T14:38:46.908960,15.19232125,.00101272,97.4469,248.3064,68.1655,292.0656,0,U,41599,999,55681,.28106527E-3,.5861E-4,0
