ALOS-2                  
1 39766U 14029A   26188.56429492  .00001751  00000+0  24132-3 0  9991
2 39766  97.9222 285.4371 0001600  91.7523 268.3872 14.79472595654596
KAZEOSAT 2              
1 40010U 14033A   26188.57270258  .00000673  00000+0  83803-4 0  9998
2 40010  97.5399  27.1062 0007066 249.6532 110.3925 14.85494590651986
HODOYOSHI-4             
1 40011U 14033B   26188.60924233  .00001902  00000+0  21112-3 0  9992
2 40011  97.5462  12.4467 0022120 235.9883 123.9234 14.88180669651849
DEIMOS-2                
1 40013U 14033D   26188.54723332  .00001920  00000+0  18621-3 0  9995
2 40013  97.5803  62.3181 0001135  83.5942 276.5408 14.93788789640763
HODOYOSHI-3             
1 40015U 14033F   26188.39388186  .00000772  00000+0  94917-4 0  9991
2 40015  97.6437 350.6235 0031368 288.8819  70.8997 14.85427120650620
SPOT 7                  
1 40053U 14034A   26188.59118751  .00000477  00000+0  10665-3 0  9994
2 40053  98.0613 250.5568 0001510  96.8965 263.2407 14.60977611640110
SKYSAT-B                
1 40072U 14037D   26188.36517727  .00001123  00000+0  12886-3 0  9995
2 40072  98.3848 148.4820 0004921 199.0980 161.0051 14.88079196648964
WORLDVIEW-3 (WV-3)      
1 40115U 14048A   26188.51600423  .00000712  00000+0  89607-4 0  9997
2 40115  97.8559 263.0678 0000689 167.0135 193.1098 14.85056010644920
GAOFEN-2                
1 40118U 14049A   26188.58164068  .00000243  00000+0  38273-4 0  9990
2 40118  98.0094 252.7690 0007672 156.8901 203.2657 14.80921582642253
YAOGAN-21               
1 40143U 14053A   26188.61442485  .00007484  00000+0  28736-3 0  9995
2 40143  97.1462 227.9756 0008709  33.4738 326.7051 15.26693508658078
YAOGAN-22               
1 40275U 14063A   26187.95896034 -.00000037  00000+0  25509-4 0  9995
2 40275 100.7751 339.5625 0006743 142.3559 217.8025 13.15531480562417
ASNARO                  
1 40298U 14070A   26188.63852683  .00007692  00000+0  36245-3 0  9997
2 40298  97.3439 264.2029 0006792 108.0668 252.1308 15.19757920647114
YAOGAN-24               
1 40310U 14072A   26188.62083715  .00001216  00000+0  18358-3 0  9996
2 40310  98.1519 326.1326 0013955 194.1523 165.9297 14.76114540626730
CBERS 4                 
1 40336U 14079A   26188.59924560  .00000303  00000+0  12001-3 0  9994
2 40336  98.3516 244.7899 0001127  49.1568 310.9716 14.35515833606880
YAOGAN-26               
1 40362U 14088A   26188.62829067  .00014497  00000+0  27682-3 0  9993
2 40362  97.0646 188.3690 0003139  16.5759 343.5594 15.48216323640865
SMAP                    
1 40376U 15003A   26188.59267549  .00000356  00000+0  77938-4 0  9992
2 40376  98.1279 195.3983 0001539  97.0586 263.0791 14.63384765610607
KOMPSAT-3A              
1 40536U 15014A   26188.58333284  .00021803  00000+0  30271-3 0  9999
2 40536  97.6894 181.4518 0056908 102.3966 258.3664 15.55091973624984
SENTINEL-2A             
1 40697U 15028A   26188.56433306  .00000170  00000+0  81634-4 0  9990
2 40697  98.5673 263.1268 0001240  95.2843 264.8482 14.30821730576643
GAOFEN-8                
1 40701U 15030A   26188.60138138  .00020686  00000+0  41404-3 0  9993
2 40701  97.6905  23.2069 0009854 119.3000 240.9235 15.46744720614604
CARBONITE 1 (CBNT-1)    
1 40718U 15032D   26188.61813406  .00001116  00000+0  14115-3 0  9998
2 40718  97.6523   5.8305 0013273 223.6233 136.3933 14.83652662592379
YAOGAN-27               
1 40878U 15040A   26188.63019866  .00000275  00000+0  83523-3 0  9998
2 40878 100.1167 174.1263 0008305 161.9289 198.2121 13.16071633520351
GAOFEN-9 01             
1 40894U 15047A   26188.64301359  .00000836  00000+0  10862-3 0  9994
2 40894  97.6266 223.4076 0028811  74.1022 286.3365 14.82924967583228
YAOGAN-28               
1 41026U 15064A   26188.62980925  .00004953  00000+0  18537-3 0  9992
2 41026  97.3097 326.4812 0011967 116.4103 243.8367 15.27693664593803
YAOGAN-29               
1 41038U 15069A   26188.62052782  .00000091  00000+0  17861-4 0  9990
2 41038  98.0020 217.2846 0001348  20.5675 339.5592 14.83101476573655
KENT RIDGE 1            
1 41167U 15077B   26188.13584313  .00003355  00000+0  10615-3 0  9993
2 41167  14.9789 117.6108 0008186 161.4249 198.6373 15.23253362584144
GAOFEN-4                
1 41194U 15083A   26188.62067860 -.00000320  00000+0  00000+0 0  9990
2 41194   0.4069  83.8503 0004252 117.1090  53.7807  1.00271413 38739
JASON-3                 
1 41240U 16002A   26188.58529020 -.00000059  00000+0  12773-4 0  9994
2 41240  66.0419  82.9519 0008250 271.4739  88.5335 12.87628189489871
SENTINEL-3A             
1 41335U 16011A   26188.55423237  .00000073  00000+0  48233-4 0  9994
2 41335  98.6240 255.6445 0001410  92.5880 267.5462 14.26738331540960
ZIYUAN 3-02 (ZY 3-02)   
1 41556U 16033A   26188.64598756  .00003396  00000+0  15422-3 0  9996
2 41556  97.3826 264.0269 0013306 211.9293 148.1137 15.21384656561094
CARTOSAT-2C             
1 41599U 16040A   26188.61026515  .00005861  00000+0  28107-3 0  9990
2 41599  97.4469 248.3064 0010127  68.1655 292.0656 15.19232125556814
